{"type": "FeatureCollection", "features": [{"type": "Feature", "properties": {}, "geometry": {"type": "MultiPolygon", "coordinates": [[[[3.861944, 51.339165], [3.9613890000001, 51.36972], [4.198055, 51.374443], [4.215, 51.370277], [4.2388980000001, 51.350426], [4.215, 51.330276], [4.17305, 51.300552], [4.12778, 51.278885], [4.062222, 51.25222], [3.9525, 51.214439], [3.8975, 51.205276], [3.8063890000001, 51.216942], [3.796111, 51.220276], [3.79083, 51.233055], [3.79639, 51.259438], [3.793056, 51.26194], [3.669167, 51.29277], [3.608055, 51.304161], [3.595555, 51.303886], [3.524722, 51.28833], [3.52111, 51.285828], [3.52028, 51.281387], [3.524444, 51.263054], [3.524167, 51.25055], [3.520833, 51.248055], [3.465833, 51.241943], [3.439167, 51.244438], [3.380833, 51.273605], [3.373611, 51.309998], [3.37087, 51.373856], [3.40667, 51.385551], [3.519444, 51.411385], [3.5383330000001, 51.411942], [3.639722, 51.38166], [3.7350000000001, 51.35], [3.76417, 51.345276], [3.861944, 51.339165]]], [[[5.168192, 52.393799], [5.1811100000001, 52.405548], [5.200271914631771, 52.41355592522615], [5.2416451170586145, 52.42741152265454], [5.250964484623953, 52.43301000957414], [5.339244292533585, 52.466713707794916], [5.3591127736127095, 52.471572182410235], [5.373917627358793, 52.479951385140716], [5.45117, 52.509445], [5.47844042782196, 52.54904365284472], [5.49214951000808, 52.55471976507172], [5.516954099031172, 52.55489944714505], [5.561308581437437, 52.5817699700909], [5.590187883307147, 52.591396128853965], [5.643611, 52.601105], [5.673232123878923, 52.59617554010247], [5.680499432892702, 52.59158521988181], [5.827870800512875, 52.569944982245374], [5.843721086212061, 52.55518874548498], [5.856867250767733, 52.5257561881401], [5.8563061672273635, 52.50693698816874], [5.84365381544895, 52.481919482837895], [5.827990345883304, 52.462775680200664], [5.806171821782743, 52.44299303777095], [5.780423556318404, 52.42766044150738], [5.752583970110935, 52.421570193376354], [5.723372569042693, 52.4183167203319], [5.675376807671356, 52.40419141539599], [5.649194766637938, 52.400867219983404], [5.636621108470302, 52.396179049370794], [5.6156086364547555, 52.37722230333932], [5.601843578822994, 52.373008042766536], [5.571173191096061, 52.369155981587724], [5.54262590389547, 52.359809731194346], [5.549793550209159, 52.32743653154597], [5.543886613265497, 52.30352977607356], [5.523832209349857, 52.28601719588866], [5.488896301935189, 52.277643681328634], [5.423444441526053, 52.27589067489094], [5.397128592509803, 52.282542332860515], [5.337561794851734, 52.31188513117136], [5.305044559049497, 52.32293035685254], [5.2361807861007685, 52.338870347815764], [5.174192227007209, 52.338888705542956], [5.154319793340813, 52.345606348789524], [5.147819825407995, 52.35616971683436], [5.144839935553422, 52.37059974818822], [5.1380195876696595, 52.38129349331759], [5.168192, 52.393799]]], [[[4.73861, 52.98972], [4.727777, 52.99305], [4.71583, 53.00388], [4.708333, 53.020554], [4.70667, 53.035828], [4.70805, 53.044441], [4.713888, 53.056107], [4.743333, 53.0861], [4.853333, 53.181389], [4.868889, 53.18833], [4.883333, 53.184166], [4.912222, 53.141937], [4.912222, 53.09861], [4.90889, 53.090553], [4.858611, 53.039162], [4.804722, 53.006943], [4.7647220000001, 52.990273], [4.73861, 52.98972]]], [[[4.889722, 53.210831], [4.879999, 53.214439], [4.883333, 53.2225], [4.893055, 53.230827], [4.964722, 53.270828], [5.002222, 53.289162], [5.07944, 53.310829], [5.099722, 53.308609], [5.104722, 53.306664], [5.106388, 53.30333], [5.103889, 53.29999], [4.889722, 53.210831]]], [[[5.1866660000001, 53.349716], [5.174999, 53.35249], [5.16722, 53.361107], [5.171111, 53.377495], [5.22805, 53.39666], [5.5566660000001, 53.451942], [5.574721, 53.452774], [5.58194, 53.44778], [5.574166, 53.436104], [5.56111, 53.430275], [5.213055, 53.349998], [5.1866660000001, 53.349716]]], [[[6.901667, 53.350273], [6.945277, 53.321388], [7.0886110000001, 53.25694], [7.190277, 53.240273], [7.201111, 53.23972], [7.208364, 53.242805], [7.207222, 53.176109], [7.211666, 53.015831], [7.210278, 53.001938], [7.197778, 52.965], [7.179722, 52.934166], [7.133055, 52.888885], [7.0910670000001, 52.836906], [7.069722, 52.814995], [7.065555, 52.78583], [7.063611, 52.721382], [7.058888, 52.663887], [7.048055, 52.638885], [7.0358320000001, 52.632774], [7.025, 52.6325], [6.920278, 52.638885], [6.9055550000001, 52.650551], [6.8947220000001, 52.653053], [6.78167, 52.65416], [6.76805, 52.65222], [6.756666, 52.649162], [6.7189230000001, 52.626785], [6.729444, 52.616104], [6.760833, 52.56721], [6.75944, 52.56472], [6.7225, 52.559441], [6.69028, 52.551941], [6.688889, 52.549164], [6.7025, 52.490555], [6.705555, 52.485832], [6.7644440000001, 52.45916], [6.94611, 52.434441], [6.965833, 52.443054], [6.983889, 52.46], [6.99083, 52.459717], [7.058888, 52.398605], [7.065555, 52.385826], [7.071111, 52.358887], [7.069722, 52.352776], [7.038055, 52.31277], [7.028055, 52.280273], [7.031388, 52.268883], [7.053094, 52.23776], [6.96472, 52.190277], [6.901111, 52.171387], [6.8775, 52.151382], [6.87194, 52.130272], [6.860555, 52.12028], [6.759428, 52.114563], [6.73639, 52.07666], [6.728611, 52.035271], [6.80055, 52.00722], [6.826111, 51.988609], [6.8308320000001, 51.971382], [6.828888, 51.965553], [6.789166, 51.928055], [6.746388, 51.906105], [6.720555, 51.897774], [6.701944, 51.90361], [6.685555, 51.914162], [6.67611, 51.91389], [6.5947220000001, 51.896111], [6.462777, 51.853607], [6.35111, 51.848053], [6.182221, 51.895271], [6.12361, 51.888054], [6.00305, 51.82999], [5.9625, 51.807777], [5.984722, 51.780548], [5.986666, 51.766937], [5.980833, 51.760277], [5.95205, 51.747528], [6.028889, 51.706665], [6.094166, 51.604439], [6.131389, 51.572495], [6.15861, 51.558327], [6.202222, 51.51694], [6.2075, 51.509995], [6.2222210000001, 51.46583], [6.2222210000001, 51.361664], [6.076388, 51.240273], [6.071388, 51.211662], [6.074721, 51.189995], [6.0794440000001, 51.175827], [6.090278, 51.168884], [6.0975, 51.131104], [6.00305, 51.08416], [5.910277, 51.062492], [5.902499, 51.06305], [5.86472, 51.046104], [5.8694440000001, 51.018883], [5.891666, 50.972771], [5.900277, 50.971939], [5.944722, 50.984993], [6.025555, 50.978333], [6.0802770000001, 50.915833], [6.084167, 50.870552], [6.06778, 50.849716], [6.060833, 50.847496], [6.051666, 50.851944], [6.04611, 50.851944], [6.026111, 50.847771], [6.0138880000001, 50.84166], [6.0080550000001, 50.802216], [6.011798, 50.757271], [5.898918, 50.753883], [5.870555, 50.760826], [5.7975, 50.76944], [5.737222, 50.75944], [5.69861, 50.75777], [5.691911, 50.760559], [5.7055600000001, 50.781952], [5.701944, 50.805832], [5.655555, 50.822495], [5.65167, 50.824715], [5.6408330000001, 50.839722], [5.6375, 50.850273], [5.6388880000001, 50.85889], [5.65, 50.87694], [5.657499, 50.88027], [5.758055, 50.959999], [5.7641660000001, 50.989998], [5.776944, 51.025833], [5.818055, 51.114998], [5.851388, 51.14222], [5.8550000000001, 51.151108], [5.8491710000001, 51.15638], [5.834444, 51.165833], [5.754167, 51.189995], [5.644722, 51.203606], [5.5683340000001, 51.22071], [5.557777, 51.263885], [5.553333, 51.269722], [5.520833, 51.291107], [5.510833, 51.294441], [5.4858330000001, 51.294998], [5.467777, 51.282776], [5.406111, 51.266106], [5.3297210000001, 51.26221], [5.23897, 51.262283], [5.2375, 51.308327], [5.2011110000001, 51.319717], [5.168056, 51.314438], [5.155, 51.315826], [5.14, 51.320831], [5.083055, 51.385826], [5.077222, 51.395271], [5.08, 51.406944], [5.1011100000001, 51.42722], [5.1044440000001, 51.434998], [5.08028, 51.466942], [5.041389, 51.486664], [5.03555, 51.487221], [5.016944, 51.47555], [5.00944, 51.446388], [5.0, 51.437775], [4.94028, 51.401382], [4.929999, 51.398605], [4.85305, 51.414444], [4.8327770000001, 51.429993], [4.8447220000001, 51.461388], [4.8455550000001, 51.48111], [4.825833, 51.492218], [4.80694, 51.499443], [4.788333, 51.503052], [4.769166, 51.502777], [4.705555, 51.469444], [4.67111, 51.44416], [4.668611, 51.440826], [4.673055, 51.430832], [4.67139, 51.42776], [4.650555, 51.423332], [4.5419440000001, 51.42667], [4.53722, 51.432495], [4.535277, 51.443886], [4.549999, 51.474998], [4.549444, 51.482773], [4.53972, 51.48555], [4.4866660000001, 51.480827], [4.393888, 51.450272], [4.396667, 51.416939], [4.417777, 51.39833], [4.437778, 51.375275], [4.428055, 51.361938], [4.40722, 51.357773], [4.388055, 51.357498], [4.35889, 51.359993], [4.2796740000001, 51.376595], [4.252368, 51.375145], [4.2024990000001, 51.405], [4.05611, 51.425827], [3.928889, 51.434998], [3.906666, 51.399994], [3.899722, 51.395], [3.823055, 51.39], [3.5730550000001, 51.444443], [3.5433330000001, 51.454437], [3.533611, 51.458054], [3.440555, 51.531662], [3.440833, 51.535828], [3.446389, 51.541939], [3.465, 51.553329], [3.523889, 51.579994], [3.568889, 51.597221], [3.837222, 51.606667], [3.872777, 51.59916], [3.89333, 51.584442], [3.903611, 51.568886], [3.902778, 51.565277], [3.865278, 51.54666], [3.843534, 51.554028], [3.820555, 51.549164], [3.8658500000001, 51.538662], [3.921389, 51.549164], [3.92861, 51.548332], [4.006666, 51.525276], [4.055833, 51.50555], [4.067499, 51.494995], [4.081944, 51.46916], [4.0958330000001, 51.451385], [4.125555, 51.438332], [4.152222, 51.435555], [4.23805, 51.43471], [4.26428, 51.44397], [4.28611, 51.448608], [4.291389, 51.454994], [4.293611, 51.46833], [4.292222, 51.47583], [4.284721, 51.488327], [4.262777, 51.510551], [4.22963, 51.518616], [4.203888, 51.514999], [4.082777, 51.53083], [3.9955550000001, 51.579437], [3.99, 51.584717], [3.9941660000001, 51.590828], [4.003055, 51.594444], [4.062222, 51.610275], [4.0791660000001, 51.612495], [4.169722, 51.605553], [4.1958330000001, 51.59916], [4.208611, 51.59], [4.209444, 51.594444], [4.196388, 51.612495], [4.186167, 51.617043], [4.1538890000001, 51.614441], [4.13472, 51.616104], [4.113333, 51.630272], [4.10614, 51.650978], [4.088611, 51.638329], [4.0663880000001, 51.629715], [4.008888, 51.617775], [3.9675, 51.614441], [3.7619440000001, 51.674995], [3.71266, 51.674675], [3.704444, 51.676941], [3.687778, 51.689438], [3.6855550000001, 51.69639], [3.6875000000001, 51.709717], [3.693611, 51.720833], [3.71417, 51.733887], [3.777778, 51.746109], [3.82486, 51.74229], [3.885278, 51.743889], [3.968611, 51.733604], [4.004444, 51.71], [4.104166, 51.661942], [4.1127780000001, 51.67083], [4.124444, 51.67722], [4.1677540000001, 51.68557], [4.127222, 51.706665], [4.0597220000001, 51.751389], [4.056666, 51.758049], [4.03083, 51.78666], [4.019722, 51.79361], [3.993055, 51.801384], [3.95583, 51.801666], [3.874189, 51.78637], [3.866111, 51.80722], [3.865555, 51.814995], [3.867777, 51.818604], [3.8808330000001, 51.823883], [3.98333, 51.846382], [4.006666, 51.846664], [4.0275, 51.836105], [4.06111, 51.860275], [4.011944, 51.977776], [4.012221, 51.981667], [4.021111, 51.988052], [4.09944, 51.98416], [4.125555, 51.989716], [4.138055, 51.995827], [4.149444, 52.002495], [4.362222, 52.17166], [4.408889, 52.214722], [4.44167, 52.252495], [4.53889, 52.39222], [4.55111, 52.419716], [4.5680550000001, 52.449165], [4.576944, 52.458054], [4.584431, 52.461502], [4.657958, 52.453125], [4.706849, 52.427227], [4.845252, 52.410198], [4.88598, 52.390373], [4.90688, 52.37416], [4.952402, 52.373123], [5.029996275849539, 52.34584532754781], [5.046919564318323, 52.34253472856417], [5.081090284247235, 52.34074796970648], [5.1228301426470235, 52.33121551360036], [5.162231735360471, 52.314722113194115], [5.1809020057810855, 52.3095942186333], [5.205087495839515, 52.30750202758454], [5.255639598043405, 52.310287805418334], [5.2862565041747756, 52.30137249496791], [5.306599825596368, 52.29226632188703], [5.3304420000001, 52.275826], [5.349736146068096, 52.272957439519814], [5.39701525359237, 52.25754323174041], [5.4075, 52.25194], [5.424444, 52.2486], [5.534204097974512, 52.26620598755008], [5.546908645746013, 52.27435678499171], [5.5792180929364505, 52.32133522342385], [5.624722, 52.354164], [5.6800625899308645, 52.374448341527405], [5.71289001259761, 52.38059807163031], [5.747555597415536, 52.39157526319371], [5.78008507780745, 52.40636891577332], [5.8196380000001, 52.432556], [5.849999, 52.46139], [5.862329718869867, 52.47709204800985], [5.874572556393883, 52.50068422694568], [5.878055, 52.50944], [5.875810541371936, 52.51374557021847], [5.8764343765974605, 52.52187784976857], [5.872252225016781, 52.54063959045175], [5.851330137423857, 52.59575955686357], [5.8550000000001, 52.606911], [5.839062063375813, 52.60702985668975], [5.826969077713706, 52.61228621349098], [5.808954473673321, 52.61498866367492], [5.6768161812826055, 52.610582033567695], [5.661390927825488, 52.613386971565085], [5.62946524977833, 52.64771560314364], [5.616897606353215, 52.65409127560766], [5.5997470269229055, 52.67039850917636], [5.5983143127540655, 52.708529549088034], [5.605316475173384, 52.74996363588411], [5.612593455427349, 52.77104019834862], [5.66214429483366, 52.819995956754724], [5.686337676732218, 52.830641176293724], [5.722343135441782, 52.835400864008115], [5.722982803611958, 52.838837235418275], [5.710276383820584, 52.844271126844674], [5.637442098656276, 52.856957520998975], [5.605307998533683, 52.85279361697969], [5.573272599105674, 52.84045340920427], [5.557513524401584, 52.83930676374402], [5.542657551587308, 52.84130703551316], [5.519130282080368, 52.85070403738792], [5.506259436004681, 52.85281200073326], [5.442535864722484, 52.85430634871905], [5.411482013112721, 52.859239944726774], [5.370504266941891, 52.88003489610597], [5.3675562166396675, 52.88543868148871], [5.367959363485753, 52.892289440032805], [5.371671002441538, 52.89636056184651], [5.412777, 52.912773], [5.422275515554496, 52.96760034253894], [5.414579244579623, 53.00643761425689], [5.415786098663429, 53.020054699212906], [5.4111973861136144, 53.033013868119106], [5.405349842906165, 53.03590572885769], [5.380931218234188, 53.064297925389745], [5.372347752958311, 53.0789093559306], [5.2630550000001, 53.035271], [5.128328043232776, 52.96187412181777], [5.085288252382539, 52.94577100169702], [5.042281907157549, 52.93442765035583], [5.043016766747783, 52.93186065786538], [5.063990388152668, 52.92136323794616], [5.091804834358157, 52.88680079585642], [5.118419939105136, 52.83663752134179], [5.12078114404171, 52.77484106180194], [5.13512781759395, 52.7607894217115], [5.1700932906475305, 52.74406226922484], [5.202222, 52.7575], [5.265146129954251, 52.75224489047678], [5.284797976017786, 52.74690599425117], [5.2925000000001, 52.737778], [5.3014726258610665, 52.708220879162916], [5.270164714463777, 52.69880017492171], [5.2553050000001, 52.691589], [5.241540778039929, 52.66587376928754], [5.22623108608397, 52.65510131681351], [5.165063677589789, 52.63198035058139], [5.136996459633824, 52.62712088212584], [5.112553286431811, 52.641036130652424], [5.085015294105218, 52.64737191632968], [5.0491060004248185, 52.643756944598195], [5.033333, 52.634163], [5.028889, 52.626663], [5.02861, 52.615829], [5.0425, 52.573883], [5.047777, 52.564163], [5.08144618413303, 52.52456831260289], [5.088522356232581, 52.50170505538277], [5.06875519095934, 52.48872100856812], [5.07520986252341, 52.47525248607971], [5.04971635988568, 52.46920513015819], [5.048351217019852, 52.46669031531019], [5.060403152313541, 52.45983292989313], [5.074350956112317, 52.44274086823794], [5.088582584847827, 52.43820814594093], [5.074095557949748, 52.42181123231435], [5.063996936319908, 52.41620109873551], [5.052842952176251, 52.41399386467396], [5.04043641199148, 52.405521712781486], [5.032394303820337, 52.389802729074304], [5.024424208160044, 52.38054693688668], [5.00942286705501, 52.38744652231807], [5.007346, 52.381570967567974], [4.9970907537205935, 52.38593502767733], [4.981582254623689, 52.38741005339457], [4.97997, 52.38086860342501], [4.9083330000001, 52.388329], [4.875527, 52.415604], [4.82579, 52.425697], [4.7131560000001, 52.441013], [4.66846, 52.465885], [4.58, 52.471664], [4.579444, 52.475555], [4.588611, 52.489441], [4.598332, 52.513885], [4.62222, 52.596664], [4.63611, 52.65222], [4.63583, 52.68055], [4.654166, 52.751663], [4.73, 52.948051], [4.734166, 52.955551], [4.74139, 52.960548], [4.773889, 52.964722], [4.796111, 52.964439], [4.809444, 52.953606], [4.809999, 52.942497], [4.8058330000001, 52.934998], [4.80694, 52.927498], [4.813333, 52.91833], [4.8625, 52.89999], [4.8875, 52.896111], [4.9430550000001, 52.905], [5.085833, 52.955276], [5.1802770000001, 53.003052], [5.254722, 53.051384], [5.301666, 53.07278], [5.3272220000001, 53.07944], [5.360833, 53.084442], [5.38611, 53.096664], [5.4025, 53.121384], [5.411111, 53.14027], [5.416944, 53.163055], [5.4152770000001, 53.174164], [5.442499, 53.21194], [5.46611, 53.230827], [5.573333, 53.288055], [5.5991660000001, 53.30028], [5.890833, 53.38222], [5.9816670000001, 53.398888], [6.0925, 53.410828], [6.183332, 53.413887], [6.19472, 53.41], [6.2969440000001, 53.401939], [6.6975, 53.461937], [6.7419440000001, 53.46583], [6.7775, 53.45916], [6.8627780000001, 53.437218], [6.87139, 53.431938], [6.871666, 53.416107], [6.901667, 53.350273]]], [[[5.804999, 53.463882], [5.9372220000001, 53.470551], [5.951388, 53.468887], [5.955555, 53.46666], [5.95611, 53.462776], [5.9480550000001, 53.458611], [5.81139, 53.438889], [5.74861, 53.44416], [5.737222, 53.442497], [5.683888, 53.425278], [5.65, 53.429161], [5.637777, 53.435829], [5.6330550000001, 53.441666], [5.633333, 53.448051], [5.657499, 53.472221], [5.663055, 53.473053], [5.668888, 53.471664], [5.674444, 53.466385], [5.699166, 53.462776], [5.804999, 53.463882]]], [[[6.13028, 53.45361], [6.11639, 53.471939], [6.117222, 53.474998], [6.13611, 53.491386], [6.148889, 53.497498], [6.303333, 53.511383], [6.3325, 53.508049], [6.34111, 53.502777], [6.3375, 53.498604], [6.234722, 53.47639], [6.16305, 53.471664], [6.15278, 53.467216], [6.1349990000001, 53.45361], [6.13028, 53.45361]]]]}}]}